[
  {
    "name": "ONEWEB-0193",
    "noradId": "48238",
    "line1": "1 48238U 21031AE  26193.79738411  .00000112  00000+0  26875-3 0  9997",
    "line2": "2 48238  87.8973 284.5959 0001813 110.4915 249.6409 13.14502022251670"
  },
  {
    "name": "ONEWEB-0191",
    "noradId": "48239",
    "line1": "1 48239U 21031AF  26194.18906440 -.00000114  00000+0 -34197-3 0  9991",
    "line2": "2 48239  87.8978 284.5187 0001919  94.7412 265.3937 13.14506233251581"
  },
  {
    "name": "ONEWEB-0195",
    "noradId": "48240",
    "line1": "1 48240U 21031AG  26193.78548907  .00000317  00000+0  82000-3 0  9997",
    "line2": "2 48240  87.8978 284.5993 0002435  97.7077 262.4330 13.14503337251512"
  },
  {
    "name": "ONEWEB-0201",
    "noradId": "48241",
    "line1": "1 48241U 21031AH  26194.23043502  .00000175  00000+0  43860-3 0  9993",
    "line2": "2 48241  87.8963 284.5255 0002048  93.3904 266.7460 13.14503070251806"
  },
  {
    "name": "ONEWEB-0207",
    "noradId": "48242",
    "line1": "1 48242U 21031AJ  26194.21046086 -.00000152  00000+0 -44391-3 0  9999",
    "line2": "2 48242  87.8970 284.5159 0002031  92.8448 267.2914 13.14501376251714"
  },
  {
    "name": "ONEWEB-0208",
    "noradId": "48243",
    "line1": "1 48243U 21031AK  26193.81164979 -.00000107  00000+0 -32427-3 0  9994",
    "line2": "2 48243  87.8971 284.6003 0002393 103.3867 256.7530 13.14502270251675"
  },
  {
    "name": "ONEWEB-0200",
    "noradId": "48244",
    "line1": "1 48244U 21031AL  26193.77518656  .00000195  00000+0  49035-3 0  9993",
    "line2": "2 48244  87.8983 284.5965 0002110  95.6221 264.5150 13.14502249251591"
  },
  {
    "name": "ONEWEB-0217",
    "noradId": "48245",
    "line1": "1 48245U 21031AM  26193.79103963  .00000144  00000+0  35362-3 0  9999",
    "line2": "2 48245  87.8977 284.5978 0002341 104.1378 256.0012 13.14502706251540"
  },
  {
    "name": "ONEWEB-0211",
    "noradId": "48767",
    "line1": "1 48767U 21045A   26193.96168264 -.00000071  00000+0 -22053-3 0  9991",
    "line2": "2 48767  87.8989 253.9418 0002608 107.2630 252.8786 13.16197446247834"
  },
  {
    "name": "ONEWEB-0223",
    "noradId": "48768",
    "line1": "1 48768U 21045B   26193.67247124  .00001519  00000+0  40007-2 0  9997",
    "line2": "2 48768  87.8987 254.1132 0002520 111.2164 248.9236 13.15540427247756"
  },
  {
    "name": "ONEWEB-0230",
    "noradId": "48769",
    "line1": "1 48769U 21045C   26194.17635729 -.00000040  00000+0 -14146-3 0  9992",
    "line2": "2 48769  87.8983 254.0257 0001885  94.7364 265.3982 13.15548264248085"
  },
  {
    "name": "ONEWEB-0237",
    "noradId": "48770",
    "line1": "1 48770U 21045D   26194.16526207  .00000144  00000+0  34932-3 0  9991",
    "line2": "2 48770  87.8983 254.0295 0002375  96.9346 263.2054 13.15548203247807"
  },
  {
    "name": "ONEWEB-0235",
    "noradId": "48771",
    "line1": "1 48771U 21045E   26193.68354990  .00000102  00000+0  23770-3 0  9998",
    "line2": "2 48771  87.8983 254.1145 0002126 139.6130 220.5159 13.15549613247733"
  },
  {
    "name": "ONEWEB-0242",
    "noradId": "48772",
    "line1": "1 48772U 21045F   26193.98145955 -.00000035  00000+0 -12762-3 0  9997",
    "line2": "2 48772  87.8996 254.0512 0001951 102.3113 257.8236 13.15548020247817"
  },
  {
    "name": "ONEWEB-0241",
    "noradId": "48773",
    "line1": "1 48773U 21045G   26193.66453807 -.00000830  00000+0 -22391-2 0  9992",
    "line2": "2 48773  87.8984 254.1294 0002356 103.4648 256.6745 13.15543741247680"
  },
  {
    "name": "ONEWEB-0243",
    "noradId": "48774",
    "line1": "1 48774U 21045H   26194.15257948  .00000138  00000+0  33304-3 0  9992",
    "line2": "2 48774  87.8984 254.0453 0001785 111.4477 248.6843 13.15550380247778"
  },
  {
    "name": "ONEWEB-0222",
    "noradId": "48775",
    "line1": "1 48775U 21045J   26193.67959772  .00000048  00000+0  94351-4 0  9993",
    "line2": "2 48775  87.8989 254.1096 0002225 105.3870 254.7506 13.15547028247754"
  },
  {
    "name": "ONEWEB-0244",
    "noradId": "48776",
    "line1": "1 48776U 21045K   26193.70575203  .00000116  00000+0  27524-3 0  9994",
    "line2": "2 48776  87.9001 254.0998 0002021 104.1286 256.0069 13.15548501248323"
  },
  {
    "name": "ONEWEB-0247",
    "noradId": "48777",
    "line1": "1 48777U 21045L   26193.70258187  .00000173  00000+0  42657-3 0  9991",
    "line2": "2 48777  87.8984 254.1294 0002029 122.6943 237.4383 13.15548626247763"
  },
  {
    "name": "ONEWEB-0245",
    "noradId": "48778",
    "line1": "1 48778U 21045M   26193.69781869  .00000054  00000+0  10843-3 0  9998",
    "line2": "2 48778  87.8986 254.1129 0002143 105.5921 254.5446 13.15549123247736"
  },
  {
    "name": "ONEWEB-0229",
    "noradId": "48779",
    "line1": "1 48779U 21045N   26194.14941804  .00000152  00000+0  37099-3 0  9998",
    "line2": "2 48779  87.8998 254.0203 0002090 106.0292 254.1069 13.15547436247822"
  },
  {
    "name": "ONEWEB-0228",
    "noradId": "48780",
    "line1": "1 48780U 21045P   26193.72648157 -.00000078  00000+0 -24093-3 0  9997",
    "line2": "2 48780  87.8998 254.0978 0002089 102.5033 257.6331 13.15549199247687"
  },
  {
    "name": "ONEWEB-0232",
    "noradId": "48781",
    "line1": "1 48781U 21045Q   26194.15734422  .00000262  00000+0  66127-3 0  9994",
    "line2": "2 48781  87.9001 254.0117 0002181  99.6807 260.4569 13.15548226248065"
  },
  {
    "name": "ONEWEB-0231",
    "noradId": "48782",
    "line1": "1 48782U 21045R   26193.67881137  .00000148  00000+0  35951-3 0  9991",
    "line2": "2 48782  87.8995 254.1188 0002206 103.3557 256.7819 13.15547632247693"
  },
  {
    "name": "ONEWEB-0234",
    "noradId": "48783",
    "line1": "1 48783U 21045S   26193.71670156  .00000076  00000+0  16693-3 0  9996",
    "line2": "2 48783  87.9000 254.0928 0002511 102.7315 257.4096 13.15547396247835"
  },
  {
    "name": "ONEWEB-0238",
    "noradId": "48784",
    "line1": "1 48784U 21045T   26194.17330845  .00000058  00000+0  11951-3 0  9998",
    "line2": "2 48784  87.9006 253.9979 0002368  95.8544 264.2856 13.15548324247799"
  },
  {
    "name": "ONEWEB-0240",
    "noradId": "48785",
    "line1": "1 48785U 21045U   26193.66216924 -.00000104  00000+0 -31045-3 0  9993",
    "line2": "2 48785  87.8996 254.1108 0002360 104.8282 255.3110 13.15548817247753"
  },
  {
    "name": "ONEWEB-0246",
    "noradId": "48786",
    "line1": "1 48786U 21045V   26193.65662693 -.00000072  00000+0 -22615-3 0  9998",
    "line2": "2 48786  87.8994 254.1156 0002025  98.9140 261.2219 13.15547883247623"
  },
  {
    "name": "ONEWEB-0210",
    "noradId": "48787",
    "line1": "1 48787U 21045W   26193.70733264  .00000105  00000+0  24571-3 0  9996",
    "line2": "2 48787  87.8995 254.1029 0001735 132.4109 227.7168 13.15548009247676"
  },
  {
    "name": "ONEWEB-0214",
    "noradId": "48788",
    "line1": "1 48788U 21045X   26194.17237909 -.00000006  00000+0 -49252-4 0  9990",
    "line2": "2 48788  87.9006 254.0052 0001717 111.7592 248.3721 13.15546597247700"
  },
  {
    "name": "ONEWEB-0221",
    "noradId": "48789",
    "line1": "1 48789U 21045Y   26194.17952609  .00000095  00000+0  21836-3 0  9995",
    "line2": "2 48789  87.8999 254.0133 0002192 103.6882 256.4493 13.15548668247797"
  },
  {
    "name": "ONEWEB-0213",
    "noradId": "48790",
    "line1": "1 48790U 21045Z   26194.16843345  .00000126  00000+0  30118-3 0  9990",
    "line2": "2 48790  87.8995 254.0192 0002049 108.1820 251.9533 13.15548592247851"
  },
  {
    "name": "ONEWEB-0212",
    "noradId": "48791",
    "line1": "1 48791U 21045AA  26194.14544454  .00000113  00000+0  26707-3 0  9993",
    "line2": "2 48791  87.8989 254.0187 0002120 101.1921 258.9447 13.15547516247849"
  },
  {
    "name": "ONEWEB-0227",
    "noradId": "48792",
    "line1": "1 48792U 21045AB  26193.68832029  .00000063  00000+0  13451-3 0  9996",
    "line2": "2 48792  87.8991 254.1094 0002115 101.5691 258.5677 13.15547682247736"
  },
  {
    "name": "ONEWEB-0226",
    "noradId": "48793",
    "line1": "1 48793U 21045AC  26193.68197887  .00000163  00000+0  39817-3 0  9998",
    "line2": "2 48793  87.8985 254.1160 0001956 107.4745 252.6599 13.15547764247707"
  },
  {
    "name": "ONEWEB-0224",
    "noradId": "48794",
    "line1": "1 48794U 21045AD  26194.17794278 -.00000003  00000+0 -42286-4 0  9991",
    "line2": "2 48794  87.8989 254.0485 0002943  99.4261 260.7202 13.15548630247693"
  },
  {
    "name": "ONEWEB-0233",
    "noradId": "48795",
    "line1": "1 48795U 21045AE  26194.18255231 -.00000030  00000+0 -11494-3 0  9990",
    "line2": "2 48795  87.8985 254.0549 0002228 105.2914 254.8462 13.15550671247711"
  },
  {
    "name": "ONEWEB-0190",
    "noradId": "48796",
    "line1": "1 48796U 21045AF  26193.71367227  .00000065  00000+0  13812-3 0  9990",
    "line2": "2 48796  87.8992 254.1124 0002174 117.2161 242.9191 13.15548656247725"
  },
  {
    "name": "ONEWEB-0236",
    "noradId": "48797",
    "line1": "1 48797U 21045AG  26193.65504762 -.00000093  00000+0 -28103-3 0  9993",
    "line2": "2 48797  87.8984 254.1319 0002157  95.2359 264.9017 13.15548119247600"
  },
  {
    "name": "ONEWEB-0248",
    "noradId": "48798",
    "line1": "1 48798U 21045AH  26193.66771782 -.00000045  00000+0 -15477-3 0  9990",
    "line2": "2 48798  87.8996 254.1153 0002405 108.5777 251.5614 13.15548836247766"
  },
  {
    "name": "ONEWEB-0225",
    "noradId": "48799",
    "line1": "1 48799U 21045AJ  26194.14625250  .00000151  00000+0  36727-3 0  9990",
    "line2": "2 48799  87.8992 254.0270 0002194 113.2136 246.9225 13.15548124247833"
  },
  {
    "name": "ONEWEB-0215",
    "noradId": "48800",
    "line1": "1 48800U 21045AK  26193.65979385 -.00000106  00000+0 -31681-3 0  9995",
    "line2": "2 48800  87.9000 254.1074 0002398 111.9675 248.1710 13.15549106247642"
  },
  {
    "name": "ONEWEB-0216",
    "noradId": "48801",
    "line1": "1 48801U 21045AL  26193.66930693 -.00000038  00000+0 -13632-3 0  9996",
    "line2": "2 48801  87.8984 254.1212 0001954  98.0014 262.1338 13.15547853247656"
  }
]